PROMETHEUS 2-3          
1 41855U 16067H   25158.54758334  .00036623  00000+0  69419-3 0  9994
2 41855  98.0720  10.8237 0004094 253.7735 106.3064 15.48250277470092
CORVUS BC2              
1 42846U 17042X   25158.51260907  .00002090  00000+0  15972-3 0  9996
2 42846  97.3707 331.2013 0013392 316.2005  43.8158 15.02917159430722
CORVUS BC1              
1 42847U 17042Y   25158.43094055  .00003342  00000+0  25119-3 0  9992
2 42847  97.3761 331.6524 0011945 289.3980  70.5954 15.03170508430730
MIRATA                  
1 43015U 17073C   25158.42827105  .00056818  00000+0  92071-3 0  9990
2 43015  97.5398  53.1587 0083953  93.6809 267.4046 15.48592756410475
MAKERSAT 0              
1 43016U 17073D   25158.62661245  .00012082  00000+0  48451-3 0  9992
2 43016  97.5197  36.8296 0148018 146.4941 214.5764 15.15538284409441
SIRION PATHFINDER-2     
1 43759U 18099B   25158.59333804  .00003589  00000+0  22522-3 0  9991
2 43759  97.4778 211.5669 0010819 144.7643 215.4303 15.09877856356019
CORVUS BC4              
1 43767U 18099K   25158.55666494  .00004062  00000+0  26520-3 0  9999
2 43767  97.4586 207.3591 0008614 201.5731 158.5136 15.08363266355858
MOVE-II                 
1 43780U 18099Y   25158.75209940  .00236800  00000+0  15058-2 0  9995
2 43780  97.4654 234.2368 0005969 191.4367 168.6763 15.75763771357514
SPACEBEE-7              
1 43816U 18099BL  25158.45004437  .00021696  00000+0  61555-3 0  9995
2 43816  97.4963 228.6379 0007755 122.6526 237.5466 15.36211620356472
SHIELDS 1               
1 43850U 18104B   25158.38689736  .00024211  00000+0  28732-3 0  9999
2 43850  85.0157  38.0958 0008270 136.2040 223.9881 15.61002193361117
SONATE                  
1 44400U 19038Q   25158.50655878  .00272102  30527-4  76149-3 0  9993
2 44400  97.6885 185.2536 0006795 208.0351 152.0558 15.93589434329240
DUCHIFAT-3              
1 44854U 19089C   25158.88132952  .00037451  00000+0  73396-3 0  9991
2 44854  36.9445   5.9958 0005115 302.7550  57.2714 15.46425668302680
M2 PATHFINDER           
1 45727U 20037E   25158.47397596  .00001550  00000+0  12231-3 0  9990
2 45727  97.8112 341.1108 0012525 343.7929  16.2892 15.02184387269199
NETSAT-4                
1 46504U 20068U   25158.51597136  .00009544  00000+0  32744-3 0  9997
2 46504  97.8441 136.2274 0006541 193.9123 166.1937 15.30374651258231
NETSAT-3                
1 46505U 20068V   25158.50650663  .00009723  00000+0  34913-3 0  9991
2 46505  97.8444 135.1638 0005914 206.4004 153.6934 15.28883688258193
NETSAT-1                
1 46506U 20068W   25158.35581229  .00006502  00000+0  27053-3 0  9995
2 46506  97.8471 132.8483 0005109 225.9005 134.1811 15.24130051258024
NETSAT-2                
1 46507U 20068X   25158.50603500  .00010562  00000+0  36658-3 0  9992
2 46507  97.8441 135.7047 0004012 221.4375 138.6561 15.29980354258174
WILDTRACKCUBE-SIMBA     
1 47941U 21022K   25158.89232134  .00025130  00000+0  52731-3 0  9996
2 47941  97.4237  63.3883 0007941 330.7692  29.3112 15.45335907232930
GRBALPHA                
1 47959U 21022AD  25158.73192291  .02491609  24413-5  12786-2 0  9992
2 47959  97.3969  73.6447 0009164 200.9592 159.1323 16.20390629232411
LEDSAT                  
1 49069U 21073D   25157.74165335  .00052192  00000+0  63325-3 0  9995
2 49069  97.3890 239.1608 0010033  95.8960 264.3440 15.60402453210993
GREENCUBE (IO-117)      
1 53109U 22080E   25158.10060415 -.00000003  00000+0  00000+0 0  9990
2 53109  70.1414  68.6820 0008683   9.8023 350.2805  6.42583878 67966
SITRO-AIS 5 (KATYS)     
1 57176U 23091L   25158.84330005  .00007884  00000+0  37115-3 0  9991
2 57176  97.5586 215.7902 0013118 342.3368  17.7409 15.19743160107314
SITRO-AIS 6 (CHIRKIN)   
1 57192U 23091AC  25158.83057723  .00007771  00000+0  36684-3 0  9996
2 57192  97.5587 215.7881 0013074 342.2864  17.7913 15.19652192107314
SITRO-AIS 8 (ANOKHIN)   
1 57193U 23091AD  25158.87139416  .00008039  00000+0  36435-3 0  9993
2 57193  97.5583 216.3300 0012445 342.0172  18.0621 15.21051264107355
SITRO-AIS 7 (FARTUSHNIY)
1 57194U 23091AE  25158.85206060  .00007623  00000+0  36091-3 0  9998
2 57194  97.5585 215.7489 0012947 342.7597  17.3196 15.19560538107315
SITRO-AIS 10 (BURDAEV)  
1 57199U 23091AK  25158.85651933  .00010143  00000+0  41640-3 0  9993
2 57199  97.5595 218.6280 0007888 326.4162  33.6574 15.24390808107494
SITRO-AIS 9 (SHCHUKIN)  
1 57201U 23091AM  25158.87403745  .00009608  00000+0  39678-3 0  9997
2 57201  97.5592 218.5603 0007910 326.7010  33.3728 15.24205251107499
SITRO-AIS 12 (SMIRENNIY)
1 57204U 23091AQ  25158.85634260  .00009912  00000+0  40684-3 0  9993
2 57204  97.5601 218.8236 0007670 319.2910  40.7753 15.24406133107501
SITRO-AIS 11 (SHEFFER)  
1 57208U 23091AU  25158.87517996  .00009632  00000+0  39310-3 0  9998
2 57208  97.5600 218.9307 0007544 319.8094  40.2584 15.24607892107516
VERONIKA                
1 58261U 23174F   25158.80086354  .00126008  00000+0  10404-2 0  9991
2 58261  97.4124 244.8679 0001691  92.5785 267.5671 15.69926808 88402
ROBUSTA-1E (ENSO)       
1 58470U 23185J   25158.83644717  .00047332  00000+0  68636-3 0  9994
2 58470  97.3743 233.8988 0007795  97.4244 262.7896 15.55676867 84769
SITRO-AIS 25            
1 59066U 24039R   25158.84489765  .00004823  00000+0  41027-3 0  9999
2 59066  95.3748 338.8315 0155413 192.2900 167.4516 14.89102868 68930
SITRO-AIS 26            
1 59067U 24039S   25158.87062149  .00004027  00000+0  34426-3 0  9997
2 59067  95.3751 338.8091 0155590 192.4449 167.2915 14.88956417 68939
SITRO-AIS 27            
1 59068U 24039T   25158.86600774  .00004352  00000+0  36932-3 0  9994
2 59068  95.3752 338.9292 0154879 191.8003 167.9576 14.89279862 68947
SITRO-AIS 28            
1 59071U 24039U   25158.85311941  .00005078  00000+0  43013-3 0  9996
2 59071  95.3752 338.9468 0154733 191.7459 168.0141 14.89321542 68942
GRBBETA                 
1 60237U 24128C   25158.27375085  .00003699  00000+0  28418-3 0  9995
2 60237  61.9917  87.5987 0051832  57.0050 303.6007 15.02611577 49853
OOV-CUBE (TUBSAT-30)    
1 60240U 24128F   25157.93034722  .00002362  00000+0  19911-3 0  9995
2 60240  61.9959  91.5680 0051717  53.7806 306.8048 15.00241065 49761
ROBUSTA-3A (MEDITERRAN*)
1 60243U 24128J   25158.51541796  .00006498  00000+0  46227-3 0  9991
2 60243  61.9887  85.9002 0050572  50.7783 309.7781 15.04607047 49911
LASARSAT                
1 62391U 24247Q   25158.41663613  .00009443  00000+0  37268-3 0  9999
2 62391  44.9843 171.7293 0007251  26.8625 333.2631 15.25850620 25731
CROCUBE                 
1 62394U 24247T   25158.08369293  .00009915  00000+0  38861-3 0  9996
2 62394  44.9798 173.4552 0007772  26.1158 334.0115 15.26028175 25685
